SWAS                    
1 25560U 98071A   26068.53487068  .00004636  00000+0  29986-3 0  9991
2 25560  69.8952 124.3662 0004099  14.3215 345.8065 15.08888192482231
STARLINK-4531           
1 53425U 22097AP  26068.40418644 -.00000925  00000+0 -40038-4 0  9998
2 53425  53.2169 115.4028 0001462  94.1137 266.0022 15.08839307198578
